OBJECT_NAME,OBJECT_ID,EPOCH,MEAN_MOTION,ECCENTRICITY,INCLINATION,RA_OF_ASC_NODE,ARG_OF_PERICENTER,MEAN_ANOMALY,EPHEMERIS_TYPE,CLASSIFICATION_TYPE,NORAD_CAT_ID,ELEMENT_SET_NO,REV_AT_EPOCH,BSTAR,MEAN_MOTION_DOT,MEAN_MOTION_DDOT
DMSP 5D-3 F16 (USA 172),2003-048A,2026-07-02T19:40:22.365120,14.14484372,.0008194,98.9886,207.7511,101.3623,73.4249,0,U,28054,999,17169,.28159E-4,.9E-7,0
METEOSAT-9 (MSG-2),2005-049B,2026-07-02T18:18:46.536768,1.00267373,.0002567,9.3943,54.0128,359.4901,187.7563,0,U,28912,999,715,0,.13E-5,0
DMSP 5D-3 F17 (USA 191),2006-050A,2026-07-02T19:07:30.493344,14.14995050,.0010476,98.7380,190.0476,18.0502,342.1041,0,U,29522,999,1463,.43547E-4,.41E-6,0
FENGYUN 3A,2008-026A,2026-07-02T20:03:18.362016,14.19574446,.0009882,98.6885,124.3762,83.5691,276.6610,0,U,32958,999,93762,.63361E-4,.9E-6,0
GOES 14,2009-033A,2026-07-02T18:20:42.920160,1.00105344,.000223,1.7278,82.8660,26.4183,219.3743,0,U,35491,999,674,0,-.329E-5,0
DMSP 5D-3 F18 (USA 210),2009-057A,2026-07-02T18:27:44.724096,14.14905612,.0010489,98.9045,164.5050,201.2830,158.7908,0,U,35951,999,86179,.16904E-3,.282E-5,0
EWS-G2 (GOES 15),2010-008A,2026-07-02T18:40:50.971008,1.00268387,.0005372,1.3180,82.6370,46.1849,135.6761,0,U,36411,999,5979,0,.31E-6,0
COMS 1,2010-032A,2026-07-02T17:39:34.713216,0.99169036,.0011777,4.8426,75.1736,13.9183,108.0967,0,U,36744,999,5124,0,-.89E-6,0
FENGYUN 3B,2010-059A,2026-07-02T21:12:39.174336,14.14843237,.0022753,98.9609,229.9644,140.0070,32.7198,0,U,37214,999,80964,-.7294E-4,-.186E-5,0
SUOMI NPP,2011-061A,2026-07-02T20:20:20.697792,14.19520596,.0000688,98.7955,124.6167,308.4126,51.6988,0,U,37849,999,76066,.59113E-4,.8E-6,0
METEOSAT-10 (MSG-3),2012-035B,2026-07-02T07:08:22.761024,1.00269475,.0001613,4.7052,60.9470,15.2569,311.3560,0,U,38552,999,5100,0,.1E-7,0
METOP-B,2012-049A,2026-07-02T19:35:38.287104,14.21443713,.0001303,98.6496,235.0033,327.6021,32.5076,0,U,38771,999,71548,.816E-4,.135E-5,0
INSAT-3D,2013-038B,2026-07-02T20:26:20.228928,1.00268722,.0001056,1.9642,82.3574,15.1644,259.4386,0,U,39216,999,4723,0,-.329E-5,0
FENGYUN 3C,2013-052A,2026-07-02T20:59:30.281856,14.15758647,.0014297,98.4995,157.0297,343.0927,16.9769,0,U,39260,999,66078,.71027E-4,.98E-6,0
METEOR-M 2,2014-037A,2026-07-02T21:54:38.480832,14.21466338,.0005908,98.5121,159.0949,3.7572,356.3649,0,U,40069,999,62155,.1182E-3,.216E-5,0
HIMAWARI-8,2014-060A,2026-07-02T20:32:04.143264,1.00271871,.0001056,0.0157,5.8561,102.2100,261.5191,0,U,40267,999,4291,0,-.265E-5,0
FENGYUN 2G,2014-090A,2026-07-02T21:05:55.223232,1.00266634,.0003609,5.6767,72.6316,150.3036,114.0182,0,U,40367,999,4215,0,-.293E-5,0
METEOSAT-11 (MSG-4),2015-034A,2026-07-02T19:09:37.241280,1.00267972,.0002235,3.2395,71.0127,349.1023,157.4441,0,U,40732,999,737,0,.71E-6,0
ELEKTRO-L 2,2015-074A,2026-07-01T22:30:52.736832,1.00271077,.00005169,6.7296,70.3426,273.6365,259.1662,0,U,41105,999,3865,0,-.111E-5,0
SENTINEL-3A,2016-011A,2026-07-02T18:50:58.903008,14.26737056,.0001425,98.6243,250.9446,94.5446,265.5897,0,U,41335,999,54028,.74151E-4,.136E-5,0
INSAT-3DR,2016-054A,2026-07-02T10:54:40.578912,1.00272241,.0010094,0.1421,85.9447,186.2693,245.9301,0,U,41752,999,3597,0,-.66E-6,0
HIMAWARI-9,2016-064A,2026-07-02T16:41:28.736736,1.00268231,.0001438,0.0302,267.9360,225.4185,178.4790,0,U,41836,999,3536,0,-.265E-5,0
GOES 16,2016-071A,2026-07-02T16:54:17.554176,1.00272031,.0000562,0.3771,85.5912,33.2401,310.7945,0,U,41866,999,3525,0,-.8E-6,0
FENGYUN 4A,2016-077A,2026-07-02T21:24:50.553792,1.00275971,.0007924,2.3605,80.1179,157.9983,127.7587,0,U,41882,999,3508,0,-.347E-5,0
CYGFM05,2016-078A,2026-07-02T15:09:48.600000,15.57329564,.0008068,34.9557,158.2652,285.0788,74.9044,0,U,41884,999,53116,.33165E-3,.25116E-3,0
CYGFM04,2016-078B,2026-07-02T20:57:08.290368,15.62401888,.0006484,34.9318,123.5523,322.0141,38.0127,0,U,41885,999,53145,.3901E-3,.35933E-3,0
CYGFM02,2016-078C,2026-07-02T20:13:51.940128,15.65546274,.0007402,34.9400,117.8213,325.5178,34.5068,0,U,41886,999,53162,.39734E-3,.41508E-3,0
CYGFM01,2016-078D,2026-07-02T14:43:41.856960,15.58029354,.0007978,34.9387,159.3160,279.6825,80.2998,0,U,41887,999,53111,.32997E-3,.25659E-3,0
CYGFM08,2016-078E,2026-07-02T06:58:11.352288,15.60797506,.0008715,34.9423,140.6357,306.3717,53.6204,0,U,41888,999,53133,.36529E-3,.31616E-3,0
CYGFM07,2016-078G,2026-07-02T05:57:59.630112,15.60901001,.0007032,34.9439,129.2429,318.0003,42.0183,0,U,41890,999,53135,.36586E-3,.31773E-3,0
CYGFM03,2016-078H,2026-07-02T20:37:19.568928,15.60926669,.0006872,34.9396,127.1049,310.3425,49.6700,0,U,41891,999,53142,.39723E-3,.34547E-3,0
